[{"OBJECT_NAME":"STARLINK-5163","OBJECT_ID":"2022-136D","EPOCH":"2026-03-09T21:33:28.391328","MEAN_MOTION":15.08836257,"ECCENTRICITY":0.00014116,"INCLINATION":53.2199,"RA_OF_ASC_NODE":343.3117,"ARG_OF_PERICENTER":81.2422,"MEAN_ANOMALY":278.873,"EPHEMERIS_TYPE":0,"CLASSIFICATION_TYPE":"U","NORAD_CAT_ID":54054,"ELEMENT_SET_NO":999,"REV_AT_EPOCH":18687,"BSTAR":-8.256175e-6,"MEAN_MOTION_DOT":-4.19e-6,"MEAN_MOTION_DDOT":0},{"OBJECT_NAME":"FENGYUN 1C DEB","OBJECT_ID":"1999-025FN","EPOCH":"2026-03-09T22:18:23.675616","MEAN_MOTION":14.79879453,"ECCENTRICITY":0.01939452,"INCLINATION":97.9352,"RA_OF_ASC_NODE":118.672,"ARG_OF_PERICENTER":81.3681,"MEAN_ANOMALY":358.3473,"EPHEMERIS_TYPE":0,"CLASSIFICATION_TYPE":"U","NORAD_CAT_ID":29868,"ELEMENT_SET_NO":999,"REV_AT_EPOCH":1584,"BSTAR":0.0007539816,"MEAN_MOTION_DOT":7.789e-5,"MEAN_MOTION_DDOT":0}]
